satname,norad_id,inclination_deg,eccentricity,mean_motion_rev_per_day,perigee_km,apogee_km,l1,l2
STARLINK-1470,45772,53.052,0.0007522,15.21218654,496.9882402917865,507.33896451804503,1 45772U 20038AU  25355.73253892  .00006706  00000+0  31083-3 0  9993,2 45772  53.0520 174.2990 0007522 106.5130 253.6693 15.21218654305182
STARLINK-1482,45773,53.0538,0.0001573,15.06402127,546.1156826945571,548.2943953000258,1 45773U 20038AV  25354.83229825  .00001698  00000+0  13284-3 0  9991,2 45773  53.0538 190.6200 0001573  92.3639 267.7531 15.06402127304879
STARLINK-1496,45780,53.0536,0.000181,15.17985207,510.68348018123106,513.1776846460652,1 45780U 20038BC  25355.91670139  .01689053  00000+0  75156-1 0  9999,2 45780  53.0536 185.5178 0001810  52.8907  13.4886 15.17985207  5846
STARLINK-1497,45781,53.0323,0.0001261,15.70933045,355.37993110156367,357.07833824072713,1 45781U 20038BD  25355.91670139  .00197251  00000+0  15153-2 0  9995,2 45781  53.0323 110.6425 0001261  30.2753 201.7703 15.70933045  5891
STARLINK-1510,45784,53.0215,0.000701,15.98779641,273.1377494407334,282.4693781111473,1 45784U 20038BG  25355.91670139  .00439994  92805-4  90177-3 0  9990,2 45784  53.0215  79.1077 0007010 340.9937 287.5987 15.98779641  6065
STARLINK-1513,45786,53.0536,0.0001491,15.06386847,546.2192948016582,548.2844457627762,1 45786U 20038BJ  25355.82382242 -.00001805  00000+0 -10233-3 0  9991,2 45786  53.0536 186.1716 0001491  98.8775 261.2383 15.06386847305026
STARLINK-1522,46027,53.0553,0.0001285,15.06415101,546.2753745923937,548.0551772773078,1 46027U 20055A   25355.53905144  .00001524  00000+0  12116-3 0  9997,2 46027  53.0553 117.4479 0001285  95.3610 264.7526 15.06415101297100
STARLINK-1523,46028,53.0547,9.71e-05,15.06401788,546.5336271683445,547.8785287940891,1 46028U 20055B   25355.62016229 -.00000110  00000+0  11509-4 0  9992,2 46028  53.0547 117.0885 0000971  87.9343 272.1757 15.06401788297130
STARLINK-1526,46029,53.0554,0.0001228,15.06398339,546.3662152406714,548.0670820967835,1 46029U 20055C   25355.61279414  .00000876  00000+0  77672-4 0  9990,2 46029  53.0554 117.1163 0001228  89.7868 270.3262 15.06398339297124
STARLINK-1555,46032,53.0559,0.0001388,15.06390076,546.280731134385,548.2032163374943,1 46032U 20055F   25355.73075363  .00002035  00000+0  15553-3 0  9992,2 46032  53.0559 116.5874 0001388  91.5843 268.5305 15.06390076297145
STARLINK-1556,46033,53.0546,0.0001067,15.06388027,546.5093150953307,547.9871923084702,1 46033U 20055G   25355.64597794  .00000244  00000+0  35254-4 0  9991,2 46033  53.0546 116.9693 0001067  87.3220 272.7891 15.06388027297107
STARLINK-1557,46034,53.0551,0.0001515,15.06393927,546.1809777447497,548.2793639975243,1 46034U 20055H   25355.71600404  .00000796  00000+0  72336-4 0  9997,2 46034  53.0551 116.6547 0001515  96.9493 263.1669 15.06393927297118
STARLINK-1558,46035,53.0547,0.000116,15.06399539,546.4096302406242,548.0163114338584,1 46035U 20055J   25355.72337330  .00000586  00000+0  58240-4 0  9999,2 46035  53.0547 116.6244 0001160  85.3724 274.7397 15.06399539297147
STARLINK-1560,46036,53.0548,0.0001319,15.06416839,546.2465026416721,548.0733959768986,1 46036U 20055K   25355.70860498  .00003863  00000+0  27795-3 0  9995,2 46036  53.0548 116.6907 0001319  80.7069 279.4069 15.06416839297143
STARLINK-1567,46038,53.0555,0.0001551,15.06401737,546.1321135529288,548.2803550242043,1 46038U 20055M   25355.71968888  .00000072  00000+0  23725-4 0  9999,2 46038  53.0555 116.6385 0001551  77.4042 282.7120 15.06401737297130
STARLINK-1569,46039,53.0546,0.0001371,15.06388876,546.2961816443967,548.1951215674662,1 46039U 20055N   25355.72706308  .00000876  00000+0  77718-4 0  9991,2 46039  53.0546 116.6063 0001371  89.8243 270.2903 15.06388876297133
STARLINK-1582,46043,53.0552,0.000125,15.0639554,546.3595569512418,548.0908975080483,1 46043U 20055S   25355.60174044 -.00000143  00000+0  93123-5 0  9996,2 46043  53.0552 117.1685 0001250  85.2060 274.9072 15.06395540297116
STARLINK-1591,46045,53.0566,0.0001422,15.06399404,546.2285997683503,548.1981694177284,1 46045U 20055U   25355.76023126  .00001196  00000+0  99145-4 0  9996,2 46045  53.0566 116.4562 0001422  94.1522 265.9630 15.06399404297126
STARLINK-1524,46047,53.0546,0.0001287,15.06398988,546.3233668156718,548.1059523328468,1 46047U 20055W   25355.58053988 -.00000129  00000+0  10213-4 0  9992,2 46047  53.0546 107.2633 0001287  80.4911 279.6224 15.06398988297253
STARLINK-1527,46048,53.0547,0.000164,15.06396818,546.0855515642579,548.3570690900451,1 46048U 20055X   25355.70954808  .00000532  00000+0  54622-4 0  9997,2 46048  53.0547 106.6864 0001640  67.5199 292.5964 15.06396818297256
STARLINK-1540,46051,53.055,0.0001042,15.06395699,546.5031172218851,547.9463626084826,1 46051U 20055AA  25355.61003065  .00000768  00000+0  70465-4 0  9995,2 46051  53.0550 107.1317 0001042  85.3346 274.7762 15.06395699297277
STARLINK-1541,46052,53.0554,0.0001213,15.06391772,546.3967278490209,548.0768235270034,1 46052U 20055AB  25355.72798126  .00001080  00000+0  91420-4 0  9999,2 46052  53.0554 106.5980 0001213  98.2730 261.8396 15.06391772297257
STARLINK-1543,46053,53.0571,0.0001436,15.06401416,546.2127386758993,548.2016975353381,1 46053U 20055AC  25355.73166117  .00000568  00000+0  57033-4 0  9992,2 46053  53.0571 106.5829 0001436  96.4274 263.6878 15.06401416297284
STARLINK-1548,46054,53.0557,0.0001122,15.06396686,546.444689641784,547.9987401374046,1 46054U 20055AD  25355.60634211  .00000425  00000+0  47405-4 0  9998,2 46054  53.0557 107.1473 0001122  78.6549 281.4566 15.06396686297262
STARLINK-1554,46055,53.0556,0.0001557,15.06402004,546.1271401595477,548.2836917878822,1 46055U 20055AE  25355.72429667  .00001666  00000+0  13072-3 0  9999,2 46055  53.0556 106.6168 0001557  91.8587 268.2580 15.06402004297281
STARLINK-1564,46058,53.056,0.0001202,15.06398996,546.382207788849,548.0470623219171,1 46058U 20055AH  25355.60271029  .00000623  00000+0  60721-4 0  9992,2 46058  53.0560 107.6258 0001202  88.3413 271.7713 15.06398996297254
STARLINK-1570,46059,53.0564,0.0001382,15.06395172,546.2692698867631,548.1834403181138,1 46059U 20055AJ  25355.69849236 -.00000140  00000+0  94756-5 0  9994,2 46059  53.0564 106.7355 0001382  81.7048 278.4097 15.06395172297237
STARLINK-1572,46060,53.0549,0.0001265,15.06399198,546.3379590503409,548.090072857377,1 46060U 20055AK  25355.69480681  .00001863  00000+0  14393-3 0  9990,2 46060  53.0549 106.7494 0001265  85.6066 274.5068 15.06399198297247
